H1 CPF 01  gfz 2021 09 28 00  7711 tandemx   
H2 1003001  6202 36605    2021 09 28 00 59 42 2021 10 03 00 00 42   120 1 1  0 0 0
H9
10 0 59489  38862.000000  0    2147579.694  -4464384.296   4776778.235
10 0 59489  38982.000000  0    2206606.830  -5076928.452   4090737.452
10 0 59489  39102.000000  0    2217114.744  -5601336.880   3332682.801
10 0 59489  39222.000000  0    2180540.784  -6027585.766   2515945.630
10 0 59489  39342.000000  0    2099309.927  -6347410.815   1654901.504
10 0 59489  39462.000000  0    1976762.123  -6554473.905    764713.627
10 0 59489  39582.000000  0    1817059.247  -6644494.574   -138939.792
10 0 59489  39702.000000  0    1625074.975  -6615342.379  -1040150.394
10 0 59489  39822.000000  0    1406268.190  -6467082.806  -1923071.242
10 0 59489  39942.000000  0    1166544.627  -6201978.401  -2772202.619
10 0 59489  40062.000000  0     912111.892  -5824445.528  -3572670.219
10 0 59489  40182.000000  0     649332.210  -5340969.117  -4310487.280
10 0 59489  40302.000000  0     384573.841  -4759978.802  -4972797.403
10 0 59489  40422.000000  0     124066.287  -4091689.818  -5548092.729
10 0 59489  40542.000000  0    -126237.526  -3347913.014  -6026405.625
10 0 59489  40662.000000  0    -360789.302  -2541838.187  -6399470.567
10 0 59489  40782.000000  0    -574561.270  -1687796.048  -6660855.410
10 0 59489  40902.000000  0    -763148.096   -801003.522  -6806061.393
10 0 59489  41022.000000  0    -922853.045    102704.266  -6832592.798
10 0 59489  41142.000000  0   -1050757.375   1007151.082  -6739993.924
10 0 59489  41262.000000  0   -1144772.274   1896101.339  -6529855.859
10 0 59489  41382.000000  0   -1203672.365   2753543.941  -6205791.997
10 0 59489  41502.000000  0   -1227110.544   3563975.243  -5773384.346
10 0 59489  41622.000000  0   -1215614.124   4312677.533  -5240097.075
10 0 59489  41742.000000  0   -1170561.725   4985987.551  -4615159.443
10 0 59489  41862.000000  0   -1094141.886   5571551.737  -3909417.050
10 0 59489  41982.000000  0    -989293.190   6058561.226  -3135152.323
10 0 59489  42102.000000  0    -859627.009   6437961.619  -2305877.846
10 0 59489  42222.000000  0    -709334.250   6702634.024  -1436104.224
10 0 59489  42342.000000  0    -543078.512   6847540.303   -541085.739
10 0 59489  42462.000000  0    -365877.145   6869830.026    363450.427
10 0 59489  42582.000000  0    -182973.433   6768905.074   1261587.807
10 0 59489  42702.000000  0        296.069   6546437.639   2137511.056
10 0 59489  42822.000000  0     178635.575   6206340.364   2975793.400
10 0 59489  42942.000000  0     346922.441   5754692.852   3761674.704
10 0 59489  43062.000000  0     500335.153   5199628.016   4481326.249
10 0 59489  43182.000000  0     634472.916   4551176.151   5122101.652
10 0 59489  43302.000000  0     745463.717   3821068.741   5672755.928
10 0 59489  43422.000000  0     830060.173   3022519.427   6123638.593
10 0 59489  43542.000000  0     885719.064   2169976.815   6466858.575
10 0 59489  43662.000000  0     910663.528   1278857.534   6696416.348
10 0 59489  43782.000000  0     903927.543    365263.816   6808302.772
10 0 59489  43902.000000  0     865381.655   -554307.273   6800563.989
10 0 59489  44022.000000  0     795739.273  -1463260.933   6673334.830
10 0 59489  44142.000000  0     696543.447  -2345204.129   6428836.908
10 0 59489  44262.000000  0     570134.288  -3184241.924   6071342.887
10 0 59489  44382.000000  0     419597.324  -3965266.190   5607104.182
10 0 59489  44502.000000  0     248694.890  -4674228.776   5044246.234
10 0 59489  44622.000000  0      61781.625  -5298398.757   4392633.895
10 0 59489  44742.000000  0    -136295.721  -5826600.826   3663704.830
10 0 59489  44862.000000  0    -340312.713  -6249425.831   2870270.979
10 0 59489  44982.000000  0    -544792.132  -6559408.729   2026292.889
10 0 59489  45102.000000  0    -744136.241  -6751168.432   1146631.337
10 0 59489  45222.000000  0    -932764.271  -6821510.356    246780.454
10 0 59489  45342.000000  0   -1105251.463  -6769483.177   -657415.064
10 0 59489  45462.000000  0   -1256464.454  -6596388.873  -1550048.268
10 0 59489  45582.000000  0   -1381690.393  -6305747.905  -2415437.664
10 0 59489  45702.000000  0   -1476757.242  -5903221.165  -3238409.043
10 0 59489  45822.000000  0   -1538142.016  -5396489.765  -4004565.968
10 0 59489  45942.000000  0   -1563063.896  -4795095.874  -4700541.958
10 0 59489  46062.000000  0   -1549560.267  -4110250.860  -5314229.138
10 0 59489  46182.000000  0   -1496544.618  -3354616.433  -5834981.279
10 0 59489  46302.000000  0   -1403845.052  -2542063.262  -6253789.085
10 0 59489  46422.000000  0   -1272222.916  -1687411.543  -6563425.070
10 0 59489  46542.000000  0   -1103371.837   -806160.041  -6758556.442
10 0 59489  46662.000000  0    -899897.704     85791.900  -6835827.242
10 0 59489  46782.000000  0    -665278.741    972425.436  -6793909.009
10 0 59489  46902.000000  0    -403806.886   1837882.183  -6633520.812
10 0 59489  47022.000000  0    -120512.259   2666740.241  -6357418.441
10 0 59489  47142.000000  0     178929.823   3444283.840  -5970354.100
10 0 59489  47262.000000  0     488308.808   4156762.968  -5479003.231
10 0 59489  47382.000000  0     801002.277   4791636.672  -4891859.763
10 0 59489  47502.000000  0    1110111.724   5337798.930  -4219101.415
10 0 59489  47622.000000  0    1408608.852   5785781.615  -3472423.288
10 0 59489  47742.000000  0    1689488.884   6127928.994  -2664842.654
10 0 59489  47862.000000  0    1945927.815   6358540.977  -1810477.245
10 0 59489  47982.000000  0    2171440.180   6473980.499   -924299.185
10 0 59489  48102.000000  0    2360033.141   6472740.449    -21869.057
10 0 59489  48222.000000  0    2506352.529   6355468.007    880943.426
10 0 59489  48342.000000  0    2605817.200   6124945.875   1768245.919
10 0 59489  48462.000000  0    2654738.240   5786030.869   2624411.402
10 0 59489  48582.000000  0    2650420.262   5345551.395   3434361.351
10 0 59489  48702.000000  0    2591242.248   4812165.929   4183838.343
10 0 59489  48822.000000  0    2476715.060   4196186.309   4859663.263
10 0 59489  48942.000000  0    2307512.680   3509366.953   5449968.752
10 0 59489  49062.000000  0    2085480.178   2764672.261   5944403.150
10 0 59489  49182.000000  0    1813618.481   1976026.316   6334307.953
10 0 59489  49302.000000  0    1496043.962   1158046.990   6612864.900
10 0 59489  49422.000000  0    1137924.728    325771.214   6775208.126
10 0 59489  49542.000000  0     745395.738   -505620.881   6818503.130
10 0 59489  49662.000000  0     325453.475  -1321082.242   6741994.947
10 0 59489  49782.000000  0    -114169.062  -2105971.562   6547020.537
10 0 59489  49902.000000  0    -565144.863  -2846316.351   6236986.518
10 0 59489  50022.000000  0   -1018709.421  -3529062.683   5817311.433
10 0 59489  50142.000000  0   -1465828.020  -4142306.028   5295335.682
10 0 59489  50262.000000  0   -1897374.305  -4675502.910   4680201.633
10 0 59489  50382.000000  0   -2304317.129  -5119660.222   3982700.701
10 0 59489  50502.000000  0   -2677910.540  -5467496.421   3215087.213
10 0 59489  50622.000000  0   -3009881.317  -5713568.224   2390862.538
10 0 59489  50742.000000  0   -3292610.293  -5854361.460   1524535.741
10 0 59489  50862.000000  0   -3519303.675  -5888344.601    631363.687
10 0 59489  50982.000000  0   -3684149.825  -5815982.530   -272924.519
10 0 59489  51102.000000  0   -3782457.449  -5639710.289  -1172413.004
10 0 59489  51222.000000  0   -3810771.344  -5363866.412  -2051288.640
10 0 59489  51342.000000  0   -3766962.734  -4994587.564  -2894127.141
10 0 59489  51462.000000  0   -3650291.789  -4539667.854  -3686169.270
10 0 59489  51582.000000  0   -3461440.986  -4008387.566  -4413580.709
10 0 59489  51702.000000  0   -3202519.876  -3411316.831  -5063691.118
10 0 59489  51822.000000  0   -2877041.624  -2760098.656  -5625208.934
10 0 59489  51942.000000  0   -2489872.536  -2067216.878  -6088408.363
10 0 59489  52062.000000  0   -2047155.731  -1345754.402  -6445287.750
10 0 59489  52182.000000  0   -1556210.048   -609145.619  -6689696.416
10 0 59489  52302.000000  0   -1025407.927    129071.177  -6817428.690
10 0 59489  52422.000000  0    -464034.593    855496.738  -6826287.669
10 0 59489  52542.000000  0     117871.194   1557107.754  -6716119.023
10 0 59489  52662.000000  0     709690.983   2221483.788  -6488813.776
10 0 59489  52782.000000  0    1300416.019   2837023.139  -6148281.642
10 0 59489  52902.000000  0    1878847.928   3393143.596  -5700390.545
10 0 59489  53022.000000  0    2433807.094   3880464.540  -5152875.102
10 0 59489  53142.000000  0    2954346.452   4290967.925  -4515214.731
10 0 59489  53262.000000  0    3429967.053   4618136.645  -3798480.850
10 0 59489  53382.000000  0    3850831.184   4857065.775  -3015153.945
10 0 59489  53502.000000  0    4207969.175   5004543.698  -2178912.228
10 0 59489  53622.000000  0    4493472.797   5059100.079  -1304395.234
10 0 59489  53742.000000  0    4700672.404   5021021.321   -406946.833
10 0 59489  53862.000000  0    4824292.049   4892329.101    497659.609
10 0 59489  53982.000000  0    4860576.346   4676723.423   1393505.115
10 0 59489  54102.000000  0    4807388.940   4379493.690   2264812.369
10 0 59489  54222.000000  0    4664279.808   4007397.046   3096233.348
10 0 59489  54342.000000  0    4432515.855   3568506.398   3873128.435
10 0 59489  54462.000000  0    4115075.941   3072033.602   4581829.291
10 0 59489  54582.000000  0    3716613.065   2528133.443   5209881.414
10 0 59489  54702.000000  0    3243380.959   1947691.451   5746264.095
10 0 59489  54822.000000  0    2703129.261   1342102.499   6181579.086
10 0 59489  54942.000000  0    2104971.777    723043.846   6508209.479
10 0 59489  55062.000000  0    1459228.840    102249.200   6720445.894
10 0 59489  55182.000000  0     777246.833   -508712.303   6814581.985
10 0 59489  55302.000000  0      71197.277  -1098652.065   6788975.931
99
